[{"OBJECT_NAME":"TEVEL2-3","OBJECT_ID":"2025-052J","EPOCH":"2026-03-09T15:29:22.754400","MEAN_MOTION":15.30377031,"ECCENTRICITY":0.0004761,"INCLINATION":97.3994,"RA_OF_ASC_NODE":324.7775,"ARG_OF_PERICENTER":105.7353,"MEAN_ANOMALY":254.4413,"EPHEMERIS_TYPE":0,"CLASSIFICATION_TYPE":"U","NORAD_CAT_ID":63218,"ELEMENT_SET_NO":999,"REV_AT_EPOCH":5485,"BSTAR":0.00069446,"MEAN_MOTION_DOT":0.00020365,"MEAN_MOTION_DDOT":0},{"OBJECT_NAME":"STARLINK-35572","OBJECT_ID":"2025-237D","EPOCH":"2026-03-09T21:56:11.819616","MEAN_MOTION":15.30213862,"ECCENTRICITY":0.0001507,"INCLINATION":53.1612,"RA_OF_ASC_NODE":38.6754,"ARG_OF_PERICENTER":101.9073,"MEAN_ANOMALY":258.2097,"EPHEMERIS_TYPE":0,"CLASSIFICATION_TYPE":"U","NORAD_CAT_ID":66117,"ELEMENT_SET_NO":999,"REV_AT_EPOCH":2264,"BSTAR":0.0013011272,"MEAN_MOTION_DOT":0.00038392,"MEAN_MOTION_DDOT":0}]
